{"type": "FeatureCollection", "features": [ {"type": "Feature", "properties": {"norad_id": 46989, "name": "FENGYUN 1C DEB", "group": "fengyun-1c-debris", "lat": -35.15926875154168, "lon": 155.4182167665272, "alt_km": 800.1793736640711, "timestamp": "2025-12-12T20:43:07.325684+00:00", "meta": {"OBJECT_NAME": "FENGYUN 1C DEB", "OBJECT_ID": "1999-025EZP", "EPOCH": "2025-12-11T10:11:56.668416", "MEAN_MOTION": 13.79296249, "ECCENTRICITY": 0.02400096, "INCLINATION": 99.5086, "RA_OF_ASC_NODE": 147.1941, "ARG_OF_PERICENTER": 340.6799, "MEAN_ANOMALY": 46.0855, "EPHEMERIS_TYPE": 0, "CLASSIFICATION_TYPE": "U", "NORAD_CAT_ID": 46989, "ELEMENT_SET_NO": 999, "REV_AT_EPOCH": 71024, "BSTAR": 0.0061779506, "MEAN_MOTION_DOT": 7.825e-05, "MEAN_MOTION_DDOT": 0}, "tle": {"line1": "1 46989U 99025EZP 25345.42496144  .00007825  00000+0  61780-2 0  9999", "line2": "2 46989  99.5086 147.1941 0240009 340.6799  46.0855 13.79296249710249"}}, "geometry": {"type": "Point", "coordinates": [155.4182167665272, -35.15926875154168]}}, {"type": "Feature", "properties": {"norad_id": 46990, "name": "FENGYUN 1C DEB", "group": "fengyun-1c-debris", "lat": 63.7536305342242, "lon": 28.049204241172085, "alt_km": 652.0313158158006, "timestamp": "2025-12-12T20:43:07.325697+00:00", "meta": {"OBJECT_NAME": "FENGYUN 1C DEB", "OBJECT_ID": "1999-025EZQ", "EPOCH": "2025-12-11T09:20:18.253824", "MEAN_MOTION": 14.23788694, "ECCENTRICITY": 0.03582567, "INCLINATION": 98.2321, "RA_OF_ASC_NODE": 189.5915, "ARG_OF_PERICENTER": 64.3954, "MEAN_ANOMALY": 55.3495, "EPHEMERIS_TYPE": 0, "CLASSIFICATION_TYPE": "U", "NORAD_CAT_ID": 46990, "ELEMENT_SET_NO": 999, "REV_AT_EPOCH": 8510, "BSTAR": 0.0041008495, "MEAN_MOTION_DOT": 0.00018298, "MEAN_MOTION_DDOT": 0}, "tle": {"line1": "1 46990U 99025EZQ 25345.38910016  .00018298  00000+0  41008-2 0  9992", "line2": "2 46990  98.2321 189.5915 0358256  64.3954  55.3495 14.23788694 85100"}}, "geometry": {"type": "Point", "coordinates": [28.049204241172085, 63.7536305342242]}}, {"type": "Feature", "properties": {"norad_id": 46992, "name": "FENGYUN 1C DEB", "group": "fengyun-1c-debris", "lat": 13.36629739644635, "lon": 155.75011150679234, "alt_km": 840.2380899382506, "timestamp": "2025-12-12T20:43:07.325709+00:00", "meta": {"OBJECT_NAME": "FENGYUN 1C DEB", "OBJECT_ID": "1999-025EZS", "EPOCH": "2025-12-09T06:12:33.153984", "MEAN_MOTION": 14.00691719, "ECCENTRICITY": 0.0072103, "INCLINATION": 98.8975, "RA_OF_ASC_NODE": 330.1075, "ARG_OF_PERICENTER": 170.257, "MEAN_ANOMALY": 190.0013, "EPHEMERIS_TYPE": 0, "CLASSIFICATION_TYPE": "U", "NORAD_CAT_ID": 46992, "ELEMENT_SET_NO": 999, "REV_AT_EPOCH": 60908, "BSTAR": 0.0006014, "MEAN_MOTION_DOT": 8.73e-06, "MEAN_MOTION_DDOT": 0}, "tle": {"line1": "1 46992U 99025EZS 25343.25871706  .00000873  00000+0  60140-3 0  9999", "line2": "2 46992  98.8975 330.1075 0072103 170.2570 190.0013 14.00691719609087"}}, "geometry": {"type": "Point", "coordinates": [155.75011150679234, 13.36629739644635]}}, {"type": "Feature", "properties": {"norad_id": 46993, "name": "FENGYUN 1C DEB", "group": "fengyun-1c-debris", "lat": -1.4502056423085272, "lon": 105.52590495654594, "alt_km": 903.7035329073951, "timestamp": "2025-12-12T20:43:07.325719+00:00", "meta": {"OBJECT_NAME": "FENGYUN 1C DEB", "OBJECT_ID": "1999-025EZT", "EPOCH": "2025-12-09T13:52:54.599808", "MEAN_MOTION": 13.69143946, "ECCENTRICITY": 0.0262449, "INCLINATION": 98.7232, "RA_OF_ASC_NODE": 102.3256, "ARG_OF_PERICENTER": 307.8097, "MEAN_ANOMALY": 66.0897, "EPHEMERIS_TYPE": 0, "CLASSIFICATION_TYPE": "U", "NORAD_CAT_ID": 46993, "ELEMENT_SET_NO": 999, "REV_AT_EPOCH": 60214, "BSTAR": 0.00067098, "MEAN_MOTION_DOT": 6.99e-06, "MEAN_MOTION_DDOT": 0}, "tle": {"line1": "1 46993U 99025EZT 25343.57840972  .00000699  00000+0  67098-3 0  9991", "line2": "2 46993  98.7232 102.3256 0262449 307.8097  66.0897 13.69143946602149"}}, "geometry": {"type": "Point", "coordinates": [105.52590495654594, -1.4502056423085272]}}, {"type": "Feature", "properties": {"norad_id": 46995, "name": "FENGYUN 1C DEB", "group": "fengyun-1c-debris", "lat": -6.82790345791535, "lon": 69.89741958829256, "alt_km": 1022.6975485663588, "timestamp": "2025-12-12T20:43:07.325731+00:00", "meta": {"OBJECT_NAME": "FENGYUN 1C DEB", "OBJECT_ID": "1999-025EZV", "EPOCH": "2025-12-11T04:54:47.403648", "MEAN_MOTION": 13.86328831, "ECCENTRICITY": 0.01903824, "INCLINATION": 98.5959, "RA_OF_ASC_NODE": 67.3353, "ARG_OF_PERICENTER": 122.4344, "MEAN_ANOMALY": 239.5386, "EPHEMERIS_TYPE": 0, "CLASSIFICATION_TYPE": "U", "NORAD_CAT_ID": 46995, "ELEMENT_SET_NO": 999, "REV_AT_EPOCH": 60447, "BSTAR": 0.0035321637, "MEAN_MOTION_DOT": 4.676e-05, "MEAN_MOTION_DDOT": 0}, "tle": {"line1": "1 46995U 99025EZV 25345.20471532  .00004676  00000+0  35322-2 0  9990", "line2": "2 46995  98.5959  67.3353 0190382 122.4344 239.5386 13.86328831604470"}}, "geometry": {"type": "Point", "coordinates": [69.89741958829256, -6.82790345791535]}}, {"type": "Feature", "properties": {"norad_id": 46997, "name": "FENGYUN 1C DEB", "group": "fengyun-1c-debris", "lat": -23.875279608943053, "lon": 31.023251174080073, "alt_km": 785.9834246869186, "timestamp": "2025-12-12T20:43:07.325742+00:00", "meta": {"OBJECT_NAME": "FENGYUN 1C DEB", "OBJECT_ID": "1999-025EZX", "EPOCH": "2025-12-07T08:16:23.280096", "MEAN_MOTION": 14.27956499, "ECCENTRICITY": 0.0024911, "INCLINATION": 98.5588, "RA_OF_ASC_NODE": 21.7939, "ARG_OF_PERICENTER": 352.6348, "MEAN_ANOMALY": 70.0216, "EPHEMERIS_TYPE": 0, "CLASSIFICATION_TYPE": "U", "NORAD_CAT_ID": 46997, "ELEMENT_SET_NO": 999, "REV_AT_EPOCH": 62374, "BSTAR": 0.0018200701, "MEAN_MOTION_DOT": 4.485e-05, "MEAN_MOTION_DDOT": 0}, "tle": {"line1": "1 46997U 99025EZX 25341.34471389  .00004485  00000+0  18201-2 0  9998", "line2": "2 46997  98.5588  21.7939 0024911 352.6348  70.0216 14.27956499623743"}}, "geometry": {"type": "Point", "coordinates": [31.023251174080073, -23.875279608943053]}}, {"type": "Feature", "properties": {"norad_id": 47001, "name": "FENGYUN 1C DEB", "group": "fengyun-1c-debris", "lat": 3.386656083820869, "lon": 44.35372732224821, "alt_km": 740.0842160887023, "timestamp": "2025-12-12T20:43:07.325752+00:00", "meta": {"OBJECT_NAME": "FENGYUN 1C DEB", "OBJECT_ID": "1999-025FAB", "EPOCH": "2025-12-11T09:38:44.993760", "MEAN_MOTION": 14.38447504, "ECCENTRICITY": 0.00517509, "INCLINATION": 99.3059, "RA_OF_ASC_NODE": 43.327, "ARG_OF_PERICENTER": 53.4602, "MEAN_ANOMALY": 307.1332, "EPHEMERIS_TYPE": 0, "CLASSIFICATION_TYPE": "U", "NORAD_CAT_ID": 47001, "ELEMENT_SET_NO": 999, "REV_AT_EPOCH": 73895, "BSTAR": 0.0027920428, "MEAN_MOTION_DOT": 8.616e-05, "MEAN_MOTION_DDOT": 0}, "tle": {"line1": "1 47001U 99025FAB 25345.40190965  .00008616  00000+0  27920-2 0  9992", "line2": "2 47001  99.3059  43.3270 0051750  53.4602 307.1332 14.38447504738957"}}, "geometry": {"type": "Point", "coordinates": [44.35372732224821, 3.386656083820869]}}, {"type": "Feature", "properties": {"norad_id": 47005, "name": "FENGYUN 1C DEB", "group": "fengyun-1c-debris", "lat": 66.30366103027349, "lon": 53.11045380596497, "alt_km": 894.9833356726595, "timestamp": "2025-12-12T20:43:07.325762+00:00", "meta": {"OBJECT_NAME": "FENGYUN 1C DEB", "OBJECT_ID": "1999-025FAF", "EPOCH": "2025-12-03T11:49:12.815616", "MEAN_MOTION": 14.10913141, "ECCENTRICITY": 0.00635736, "INCLINATION": 99.6019, "RA_OF_ASC_NODE": 65.7889, "ARG_OF_PERICENTER": 267.3996, "MEAN_ANOMALY": 108.1197, "EPHEMERIS_TYPE": 0, "CLASSIFICATION_TYPE": "U", "NORAD_CAT_ID": 47005, "ELEMENT_SET_NO": 999, "REV_AT_EPOCH": 82637, "BSTAR": 0.0032335345, "MEAN_MOTION_DOT": 5.865e-05, "MEAN_MOTION_DDOT": 0}, "tle": {"line1": "1 47005U 99025FAF 25337.49250944  .00005865  00000+0  32335-2 0  9999", "line2": "2 47005  99.6019  65.7889 0063573 267.3996 108.1197 14.10913141826379"}}, "geometry": {"type": "Point", "coordinates": [53.11045380596497, 66.30366103027349]}}, {"type": "Feature", "properties": {"norad_id": 47007, "name": "FENGYUN 1C DEB", "group": "fengyun-1c-debris", "lat": -15.408612018244247, "lon": 26.55007908166823, "alt_km": 1042.2426195527814, "timestamp": "2025-12-12T20:43:07.325772+00:00", "meta": {"OBJECT_NAME": "FENGYUN 1C DEB", "OBJECT_ID": "1999-025FAH", "EPOCH": "2025-12-08T21:16:39.177984", "MEAN_MOTION": 13.97173358, "ECCENTRICITY": 0.0236041, "INCLINATION": 98.2064, "RA_OF_ASC_NODE": 205.2735, "ARG_OF_PERICENTER": 64.5325, "MEAN_ANOMALY": 298.0058, "EPHEMERIS_TYPE": 0, "CLASSIFICATION_TYPE": "U", "NORAD_CAT_ID": 47007, "ELEMENT_SET_NO": 999, "REV_AT_EPOCH": 78795, "BSTAR": 0.002596, "MEAN_MOTION_DOT": 4.564e-05, "MEAN_MOTION_DDOT": 0}, "tle": {"line1": "1 47007U 99025FAH 25342.88656456  .00004564  00000+0  25960-2 0  9999", "line2": "2 47007  98.2064 205.2735 0236041  64.5325 298.0058 13.97173358787959"}}, "geometry": {"type": "Point", "coordinates": [26.55007908166823, -15.408612018244247]}}, {"type": "Feature", "properties": {"norad_id": 47009, "name": "FENGYUN 1C DEB", "group": "fengyun-1c-debris", "lat": 66.4383586001754, "lon": 171.8176173217044, "alt_km": 1332.260830002855, "timestamp": "2025-12-12T20:43:07.325795+00:00", "meta": {"OBJECT_NAME": "FENGYUN 1C DEB", "OBJECT_ID": "1999-025FAK", "EPOCH": "2025-12-02T05:09:31.123584", "MEAN_MOTION": 13.37303446, "ECCENTRICITY": 0.0352227, "INCLINATION": 98.9376, "RA_OF_ASC_NODE": 321.2954, "ARG_OF_PERICENTER": 285.6992, "MEAN_ANOMALY": 70.555, "EPHEMERIS_TYPE": 0, "CLASSIFICATION_TYPE": "U", "NORAD_CAT_ID": 47009, "ELEMENT_SET_NO": 999, "REV_AT_EPOCH": 58668, "BSTAR": 0.00057132, "MEAN_MOTION_DOT": 3.87e-06, "MEAN_MOTION_DDOT": 0}, "tle": {"line1": "1 47009U 99025FAK 25336.21494356  .00000387  00000+0  57132-3 0  9996", "line2": "2 47009  98.9376 321.2954 0352227 285.6992  70.5550 13.37303446586681"}}, "geometry": {"type": "Point", "coordinates": [171.8176173217044, 66.4383586001754]}}]}